STARLINK-36565          
1 67544U 26014N   26051.66129946  .00208507  00000+0  13622-2 0  9993
2 67544  97.2837 295.7694 0001231 101.0198 259.1205 15.75236286  5894
STARLINK-36583          
1 67545U 26014P   26051.24060169  .00157113  00000+0  10342-2 0  9991
2 67545  97.2832 295.2653 0001702  82.0292 278.1166 15.75207261  5827
STARLINK-36580          
1 67546U 26014Q   26051.66730015  .00401654  00000+0  25534-2 0  9993
2 67546  97.2836 295.7602 0001335  93.9344 266.2073 15.75331529  5899
STARLINK-36584          
1 67547U 26014R   26051.64966627  .00233426  00000+0  15223-2 0  9996
2 67547  97.2846 295.7826 0001411 117.7749 242.3659 15.75208192  5892
STARLINK-36586          
1 67548U 26014S   26051.63045324  .00219515  00000+0  11141-2 0  9996
2 67548  97.2833 295.8105 0002135 123.5459 236.6013 15.80895634  5896
STARLINK-36564          
1 67549U 26014T   26051.67541679  .00386707  00000+0  24627-2 0  9996
2 67549  97.2844 295.7501 0002337 118.8840 241.2660 15.75332892  5833
STARLINK-36563          
1 67550U 26014U   26051.67118266  .00396527  00000+0  25215-2 0  9995
2 67550  97.2848 295.7538 0001810  79.8249 280.3221 15.75339821  5895
STARLINK-36566          
1 67551U 26014V   26051.66906445  .00398306  00000+0  25329-2 0  9992
2 67551  97.2839 295.7574 0001568 111.2696 248.8737 15.75333845  5883
STARLINK-36567          
1 67552U 26014W   26051.23284162  .00247883  00000+0  16165-2 0  9992
2 67552  97.2843 295.2738 0002312  78.3497 281.8028 15.75167835  5813
STARLINK-36569          
1 67553U 26014X   26051.65141814  .00201071  00000+0  13150-2 0  9995
2 67553  97.2846 295.7780 0001354 103.7089 256.4327 15.75232831  5880
STARLINK-36395          
1 67554U 26014Y   26051.67188721  .00386114  00000+0  24589-2 0  9996
2 67554  97.2840 295.7489 0001671 100.7051 259.4403 15.75334088  5884
STARLINK-36559          
1 67555U 26014Z   26051.67329972  .00246724  00000+0  16018-2 0  9992
2 67555  97.2840 295.7467 0002407 114.0751 246.0766 15.75274656  5882
